{
  "type": "FeatureCollection",
  "features": [
    {
      "type": "Feature",
      "properties": {
        "norad_id": 33412,
        "name": "COSMO-SKYMED 3",
        "group": "resource",
        "lat": 76.86112179794317,
        "lon": 43.428227477949626,
        "alt_km": 546.5145691812095,
        "timestamp": "2025-12-02T23:34:15.170243+00:00",
        "meta_object_name": "COSMO-SKYMED 3",
        "meta_object_id": "2008-054A",
        "meta_epoch": "2025-12-02T13:33:06.897888",
        "meta_mean_motion": 15.05200387,
        "meta_eccentricity": 0.0015318,
        "meta_inclination": 97.8474,
        "meta_ra_of_asc_node": 186.7857,
        "meta_arg_of_pericenter": 207.7552,
        "meta_mean_anomaly": 152.2858,
        "meta_ephemeris_type": 0,
        "meta_classification_type": "U",
        "meta_norad_cat_id": 33412,
        "meta_element_set_no": 999,
        "meta_rev_at_epoch": 92734,
        "meta_bstar": 0.00038655,
        "meta_mean_motion_dot": 5.464e-05,
        "meta_mean_motion_ddot": 0,
        "tle_line1": "1 33412U 08054A   25336.56466317  .00005464  00000+0  38655-3 0  9995",
        "tle_line2": "2 33412  97.8474 186.7857 0015318 207.7552 152.2858 15.05200387927349"
      },
      "geometry": {
        "type": "Point",
        "coordinates": [
          43.428227477949626,
          76.86112179794317
        ]
      }
    },
    {
      "type": "Feature",
      "properties": {
        "norad_id": 33446,
        "name": "YAOGAN-4",
        "group": "resource",
        "lat": 24.083160109826792,
        "lon": 90.74388696569669,
        "alt_km": 629.981920295194,
        "timestamp": "2025-12-02T23:34:15.170253+00:00",
        "meta_object_name": "YAOGAN-4",
        "meta_object_id": "2008-061A",
        "meta_epoch": "2025-12-02T09:54:49.934880",
        "meta_mean_motion": 14.82629216,
        "meta_eccentricity": 0.0014484,
        "meta_inclination": 97.9168,
        "meta_ra_of_asc_node": 266.6147,
        "meta_arg_of_pericenter": 357.7932,
        "meta_mean_anomaly": 2.3215,
        "meta_ephemeris_type": 0,
        "meta_classification_type": "U",
        "meta_norad_cat_id": 33446,
        "meta_element_set_no": 999,
        "meta_rev_at_epoch": 91650,
        "meta_bstar": 0.00026593,
        "meta_mean_motion_dot": 2.092e-05,
        "meta_mean_motion_ddot": 0,
        "tle_line1": "1 33446U 08061A   25336.41307795  .00002092  00000+0  26593-3 0  9990",
        "tle_line2": "2 33446  97.9168 266.6147 0014484 357.7932   2.3215 14.82629216916506"
      },
      "geometry": {
        "type": "Point",
        "coordinates": [
          90.74388696569669,
          24.083160109826792
        ]
      }
    },
    {
      "type": "Feature",
      "properties": {
        "norad_id": 33492,
        "name": "GOSAT (IBUKI)",
        "group": "resource",
        "lat": 17.238711716217086,
        "lon": 83.19568229719022,
        "alt_km": 669.1051196125027,
        "timestamp": "2025-12-02T23:34:15.170264+00:00",
        "meta_object_name": "GOSAT (IBUKI)",
        "meta_object_id": "2009-002A",
        "meta_epoch": "2025-12-02T07:07:41.344320",
        "meta_mean_motion": 14.67547932,
        "meta_eccentricity": 9.94e-05,
        "meta_inclination": 98.0766,
        "meta_ra_of_asc_node": 85.0456,
        "meta_arg_of_pericenter": 83.9831,
        "meta_mean_anomaly": 276.1487,
        "meta_ephemeris_type": 0,
        "meta_classification_type": "U",
        "meta_norad_cat_id": 33492,
        "meta_element_set_no": 999,
        "meta_rev_at_epoch": 90258,
        "meta_bstar": 0.00023549,
        "meta_mean_motion_dot": 1.288e-05,
        "meta_mean_motion_ddot": 0,
        "tle_line1": "1 33492U 09002A   25336.29700630  .00001288  00000+0  23549-3 0  9992",
        "tle_line2": "2 33492  98.0766  85.0456 0000994  83.9831 276.1487 14.67547932902588"
      },
      "geometry": {
        "type": "Point",
        "coordinates": [
          83.19568229719022,
          17.238711716217086
        ]
      }
    },
    {
      "type": "Feature",
      "properties": {
        "norad_id": 35681,
        "name": "DEIMOS-1",
        "group": "resource",
        "lat": -16.191067754432705,
        "lon": -44.21567275220388,
        "alt_km": 650.5514079845843,
        "timestamp": "2025-12-02T23:34:15.170275+00:00",
        "meta_object_name": "DEIMOS-1",
        "meta_object_id": "2009-041A",
        "meta_epoch": "2025-12-02T12:54:54.313632",
        "meta_mean_motion": 14.74926986,
        "meta_eccentricity": 0.0002667,
        "meta_inclination": 97.7145,
        "meta_ra_of_asc_node": 137.6169,
        "meta_arg_of_pericenter": 98.1757,
        "meta_mean_anomaly": 261.9755,
        "meta_ephemeris_type": 0,
        "meta_classification_type": "U",
        "meta_norad_cat_id": 35681,
        "meta_element_set_no": 999,
        "meta_rev_at_epoch": 87789,
        "meta_bstar": 0.00015712,
        "meta_mean_motion_dot": 1.008e-05,
        "meta_mean_motion_ddot": 0,
        "tle_line1": "1 35681U 09041A   25336.53812863  .00001008  00000+0  15712-3 0  9999",
        "tle_line2": "2 35681  97.7145 137.6169 0002667  98.1757 261.9755 14.74926986877899"
      },
      "geometry": {
        "type": "Point",
        "coordinates": [
          -44.21567275220388,
          -16.191067754432705
        ]
      }
    },
    {
      "type": "Feature",
      "properties": {
        "norad_id": 35682,
        "name": "DUBAISAT-1",
        "group": "resource",
        "lat": 36.01606093541574,
        "lon": -66.34183680354411,
        "alt_km": 650.6344790858093,
        "timestamp": "2025-12-02T23:34:15.170286+00:00",
        "meta_object_name": "DUBAISAT-1",
        "meta_object_id": "2009-041B",
        "meta_epoch": "2025-12-02T08:15:54.405216",
        "meta_mean_motion": 14.74555346,
        "meta_eccentricity": 0.0010231,
        "meta_inclination": 97.9785,
        "meta_ra_of_asc_node": 107.1781,
        "meta_arg_of_pericenter": 349.8881,
        "meta_mean_anomaly": 10.212,
        "meta_ephemeris_type": 0,
        "meta_classification_type": "U",
        "meta_norad_cat_id": 35682,
        "meta_element_set_no": 999,
        "meta_rev_at_epoch": 87608,
        "meta_bstar": 0.00025522,
        "meta_mean_motion_dot": 1.65e-05,
        "meta_mean_motion_ddot": 0,
        "tle_line1": "1 35682U 09041B   25336.34437969  .00001650  00000+0  25522-3 0  9992",
        "tle_line2": "2 35682  97.9785 107.1781 0010231 349.8881  10.2120 14.74555346876083"
      },
      "geometry": {
        "type": "Point",
        "coordinates": [
          -66.34183680354411,
          36.01606093541574
        ]
      }
    },
    {
      "type": "Feature",
      "properties": {
        "norad_id": 35931,
        "name": "OCEANSAT-2",
        "group": "resource",
        "lat": 68.62062569928757,
        "lon": -43.105527999322334,
        "alt_km": 876.2904459021902,
        "timestamp": "2025-12-02T23:34:15.170297+00:00",
        "meta_object_name": "OCEANSAT-2",
        "meta_object_id": "2009-051A",
        "meta_epoch": "2025-12-02T11:13:39.508896",
        "meta_mean_motion": 13.99626819,
        "meta_eccentricity": 0.0016649,
        "meta_inclination": 98.2232,
        "meta_ra_of_asc_node": 338.1098,
        "meta_arg_of_pericenter": 71.7158,
        "meta_mean_anomaly": 288.5818,
        "meta_ephemeris_type": 0,
        "meta_classification_type": "U",
        "meta_norad_cat_id": 35931,
        "meta_element_set_no": 999,
        "meta_rev_at_epoch": 85181,
        "meta_bstar": -7.9742e-05,
        "meta_mean_motion_dot": -1.54e-06,
        "meta_mean_motion_ddot": 0,
        "tle_line1": "1 35931U 09051A   25336.46781839 -.00000154  00000+0 -79742-4 0  9995",
        "tle_line2": "2 35931  98.2232 338.1098 0016649  71.7158 288.5818 13.99626819851813"
      },
      "geometry": {
        "type": "Point",
        "coordinates": [
          -43.105527999322334,
          68.62062569928757
        ]
      }
    },
    {
      "type": "Feature",
      "properties": {
        "norad_id": 35946,
        "name": "WORLDVIEW-2 (WV-2)",
        "group": "resource",
        "lat": -61.707829121225764,
        "lon": 64.2884406613297,
        "alt_km": 776.901124972328,
        "timestamp": "2025-12-02T23:34:15.170307+00:00",
        "meta_object_name": "WORLDVIEW-2 (WV-2)",
        "meta_object_id": "2009-055A",
        "meta_epoch": "2025-12-02T12:10:14.460384",
        "meta_mean_motion": 14.37644939,
        "meta_eccentricity": 0.0005445,
        "meta_inclination": 98.4772,
        "meta_ra_of_asc_node": 47.7344,
        "meta_arg_of_pericenter": 91.4083,
        "meta_mean_anomaly": 268.7727,
        "meta_ephemeris_type": 0,
        "meta_classification_type": "U",
        "meta_norad_cat_id": 35946,
        "meta_element_set_no": 999,
        "meta_rev_at_epoch": 84738,
        "meta_bstar": 0.00010105,
        "meta_mean_motion_dot": 2.6e-06,
        "meta_mean_motion_ddot": 0,
        "tle_line1": "1 35946U 09055A   25336.50711181  .00000260  00000+0  10105-3 0  9996",
        "tle_line2": "2 35946  98.4772  47.7344 0005445  91.4083 268.7727 14.37644939847387"
      },
      "geometry": {
        "type": "Point",
        "coordinates": [
          64.2884406613297,
          -61.707829121225764
        ]
      }
    }
  ]
}